{
  "type": "FeatureCollection",
  "features": [
    {
      "type": "Feature",
      "properties": {
        "norad_id": 25590,
        "name": "COSMOS 2361",
        "group": "musson",
        "lat": 77.14577154078451,
        "lon": 11.122951182336196,
        "alt_km": 1002.0877807845382,
        "timestamp": "2025-12-20T16:47:36.556390+00:00",
        "meta_object_name": "COSMOS 2361",
        "meta_object_id": "1998-076A",
        "meta_epoch": "2025-12-20T09:56:59.198784",
        "meta_mean_motion": 13.73218386,
        "meta_eccentricity": 0.0030167,
        "meta_inclination": 82.9341,
        "meta_ra_of_asc_node": 338.4096,
        "meta_arg_of_pericenter": 243.3487,
        "meta_mean_anomaly": 227.1143,
        "meta_ephemeris_type": 0,
        "meta_classification_type": "U",
        "meta_norad_cat_id": 25590,
        "meta_element_set_no": 999,
        "meta_rev_at_epoch": 35216,
        "meta_bstar": 4.0233e-05,
        "meta_mean_motion_dot": 5.2e-07,
        "meta_mean_motion_ddot": 0,
        "tle_line1": "1 25590U 98076A   25354.41457406  .00000052  00000+0  40233-4 0  9993",
        "tle_line2": "2 25590  82.9341 338.4096 0030167 243.3487 227.1143 13.73218386352160"
      },
      "geometry": {
        "type": "Point",
        "coordinates": [
          11.122951182336196,
          77.14577154078451
        ]
      }
    },
    {
      "type": "Feature",
      "properties": {
        "norad_id": 26818,
        "name": "COSMOS 2378",
        "group": "musson",
        "lat": 1.4581150989257206,
        "lon": 173.64115188570273,
        "alt_km": 963.2860202150296,
        "timestamp": "2025-12-20T16:47:36.556411+00:00",
        "meta_object_name": "COSMOS 2378",
        "meta_object_id": "2001-023A",
        "meta_epoch": "2025-12-20T11:28:50.384352",
        "meta_mean_motion": 13.74142628,
        "meta_eccentricity": 0.0032884,
        "meta_inclination": 82.927,
        "meta_ra_of_asc_node": 353.9863,
        "meta_arg_of_pericenter": 183.1267,
        "meta_mean_anomaly": 340.8449,
        "meta_ephemeris_type": 0,
        "meta_classification_type": "U",
        "meta_norad_cat_id": 26818,
        "meta_element_set_no": 999,
        "meta_rev_at_epoch": 23029,
        "meta_bstar": 3.1431e-05,
        "meta_mean_motion_dot": 4.5e-07,
        "meta_mean_motion_ddot": 0,
        "tle_line1": "1 26818U 01023A   25354.47836093  .00000045  00000+0  31431-4 0  9994",
        "tle_line2": "2 26818  82.9270 353.9863 0032884 183.1267 340.8449 13.74142628230291"
      },
      "geometry": {
        "type": "Point",
        "coordinates": [
          173.64115188570273,
          1.4581150989257206
        ]
      }
    },
    {
      "type": "Feature",
      "properties": {
        "norad_id": 27436,
        "name": "COSMOS 2389",
        "group": "musson",
        "lat": 53.812893472410444,
        "lon": -49.170291903062996,
        "alt_km": 942.436548600579,
        "timestamp": "2025-12-20T16:47:36.556425+00:00",
        "meta_object_name": "COSMOS 2389",
        "meta_object_id": "2002-026A",
        "meta_epoch": "2025-12-20T10:07:13.988352",
        "meta_mean_motion": 13.75155422,
        "meta_eccentricity": 0.0047338,
        "meta_inclination": 82.9509,
        "meta_ra_of_asc_node": 301.2979,
        "meta_arg_of_pericenter": 39.8218,
        "meta_mean_anomaly": 78.8383,
        "meta_ephemeris_type": 0,
        "meta_classification_type": "U",
        "meta_norad_cat_id": 27436,
        "meta_element_set_no": 999,
        "meta_rev_at_epoch": 18254,
        "meta_bstar": 3.1542e-05,
        "meta_mean_motion_dot": 4.6e-07,
        "meta_mean_motion_ddot": 0,
        "tle_line1": "1 27436U 02026A   25354.42168968  .00000046  00000+0  31542-4 0  9993",
        "tle_line2": "2 27436  82.9509 301.2979 0047338  39.8218  78.8383 13.75155422182546"
      },
      "geometry": {
        "type": "Point",
        "coordinates": [
          -49.170291903062996,
          53.812893472410444
        ]
      }
    },
    {
      "type": "Feature",
      "properties": {
        "norad_id": 27818,
        "name": "COSMOS 2398",
        "group": "musson",
        "lat": -71.06858992996024,
        "lon": -114.32090215793136,
        "alt_km": 1021.3636971417382,
        "timestamp": "2025-12-20T16:47:36.556437+00:00",
        "meta_object_name": "COSMOS 2398",
        "meta_object_id": "2003-023A",
        "meta_epoch": "2025-12-20T07:12:44.411328",
        "meta_mean_motion": 13.72386499,
        "meta_eccentricity": 0.0032722,
        "meta_inclination": 82.9484,
        "meta_ra_of_asc_node": 267.1268,
        "meta_arg_of_pericenter": 91.6346,
        "meta_mean_anomaly": 24.8791,
        "meta_ephemeris_type": 0,
        "meta_classification_type": "U",
        "meta_norad_cat_id": 27818,
        "meta_element_set_no": 999,
        "meta_rev_at_epoch": 12920,
        "meta_bstar": 5.6612e-05,
        "meta_mean_motion_dot": 6.7e-07,
        "meta_mean_motion_ddot": 0,
        "tle_line1": "1 27818U 03023A   25354.30051402  .00000067  00000+0  56612-4 0  9994",
        "tle_line2": "2 27818  82.9484 267.1268 0032722  91.6346  24.8791 13.72386499129207"
      },
      "geometry": {
        "type": "Point",
        "coordinates": [
          -114.32090215793136,
          -71.06858992996024
        ]
      }
    },
    {
      "type": "Feature",
      "properties": {
        "norad_id": 28380,
        "name": "COSMOS 2407",
        "group": "musson",
        "lat": -55.1584430767577,
        "lon": 37.22460550159865,
        "alt_km": 1011.1578313474965,
        "timestamp": "2025-12-20T16:47:36.556447+00:00",
        "meta_object_name": "COSMOS 2407",
        "meta_object_id": "2004-028A",
        "meta_epoch": "2025-12-20T07:46:17.442336",
        "meta_mean_motion": 13.76314535,
        "meta_eccentricity": 0.0039985,
        "meta_inclination": 82.9598,
        "meta_ra_of_asc_node": 207.2775,
        "meta_arg_of_pericenter": 34.1719,
        "meta_mean_anomaly": 140.2138,
        "meta_ephemeris_type": 0,
        "meta_classification_type": "U",
        "meta_norad_cat_id": 28380,
        "meta_element_set_no": 999,
        "meta_rev_at_epoch": 7527,
        "meta_bstar": 5.8434e-05,
        "meta_mean_motion_dot": 7.3e-07,
        "meta_mean_motion_ddot": 0,
        "tle_line1": "1 28380U 04028A   25354.32381299  .00000073  00000+0  58434-4 0  9998",
        "tle_line2": "2 28380  82.9598 207.2775 0039985  34.1719 140.2138 13.76314535 75271"
      },
      "geometry": {
        "type": "Point",
        "coordinates": [
          37.22460550159865,
          -55.1584430767577
        ]
      }
    },
    {
      "type": "Feature",
      "properties": {
        "norad_id": 28521,
        "name": "COSMOS 2414",
        "group": "musson",
        "lat": 67.89770332030072,
        "lon": -19.103684001192903,
        "alt_km": 899.3954838148375,
        "timestamp": "2025-12-20T16:47:36.556458+00:00",
        "meta_object_name": "COSMOS 2414",
        "meta_object_id": "2005-002A",
        "meta_epoch": "2025-12-20T11:04:18.678720",
        "meta_mean_motion": 13.87903921,
        "meta_eccentricity": 0.0041272,
        "meta_inclination": 82.9488,
        "meta_ra_of_asc_node": 178.8209,
        "meta_arg_of_pericenter": 118.2138,
        "meta_mean_anomaly": 242.3203,
        "meta_ephemeris_type": 0,
        "meta_classification_type": "U",
        "meta_norad_cat_id": 28521,
        "meta_element_set_no": 999,
        "meta_rev_at_epoch": 5902,
        "meta_bstar": 3.9413e-05,
        "meta_mean_motion_dot": 6.3e-07,
        "meta_mean_motion_ddot": 0,
        "tle_line1": "1 28521U 05002A   25354.46132730  .00000063  00000+0  39413-4 0  9992",
        "tle_line2": "2 28521  82.9488 178.8209 0041272 118.2138 242.3203 13.87903921 59029"
      },
      "geometry": {
        "type": "Point",
        "coordinates": [
          -19.103684001192903,
          67.89770332030072
        ]
      }
    },
    {
      "type": "Feature",
      "properties": {
        "norad_id": 32052,
        "name": "COSMOS 2429",
        "group": "musson",
        "lat": -59.04619787846656,
        "lon": 169.29452508420349,
        "alt_km": 1008.8558879772345,
        "timestamp": "2025-12-20T16:47:36.556494+00:00",
        "meta_object_name": "COSMOS 2429",
        "meta_object_id": "2007-038A",
        "meta_epoch": "2025-12-20T10:23:29.942016",
        "meta_mean_motion": 13.75150171,
        "meta_eccentricity": 0.0038802,
        "meta_inclination": 82.9806,
        "meta_ra_of_asc_node": 337.637,
        "meta_arg_of_pericenter": 16.7559,
        "meta_mean_anomaly": 343.4869,
        "meta_ephemeris_type": 0,
        "meta_classification_type": "U",
        "meta_norad_cat_id": 32052,
        "meta_element_set_no": 999,
        "meta_rev_at_epoch": 91708,
        "meta_bstar": 3.8484e-05,
        "meta_mean_motion_dot": 5.2e-07,
        "meta_mean_motion_ddot": 0,
        "tle_line1": "1 32052U 07038A   25354.43298544  .00000052  00000+0  38484-4 0  9995",
        "tle_line2": "2 32052  82.9806 337.6370 0038802  16.7559 343.4869 13.75150171917083"
      },
      "geometry": {
        "type": "Point",
        "coordinates": [
          169.29452508420349,
          -59.04619787846656
        ]
      }
    },
    {
      "type": "Feature",
      "properties": {
        "norad_id": 35635,
        "name": "COSMOS 2454",
        "group": "musson",
        "lat": -38.98007729093771,
        "lon": -11.646811521778165,
        "alt_km": 949.7066772170165,
        "timestamp": "2025-12-20T16:47:36.556518+00:00",
        "meta_object_name": "COSMOS 2454",
        "meta_object_id": "2009-039A",
        "meta_epoch": "2025-12-20T10:41:52.495008",
        "meta_mean_motion": 13.89929566,
        "meta_eccentricity": 0.0020223,
        "meta_inclination": 82.9556,
        "meta_ra_of_asc_node": 162.8033,
        "meta_arg_of_pericenter": 53.1065,
        "meta_mean_anomaly": 335.9434,
        "meta_ephemeris_type": 0,
        "meta_classification_type": "U",
        "meta_norad_cat_id": 35635,
        "meta_element_set_no": 999,
        "meta_rev_at_epoch": 83257,
        "meta_bstar": 3.2612e-05,
        "meta_mean_motion_dot": 5.6e-07,
        "meta_mean_motion_ddot": 0,
        "tle_line1": "1 35635U 09039A   25354.44574647  .00000056  00000+0  32612-4 0  9991",
        "tle_line2": "2 35635  82.9556 162.8033 0020223  53.1065 335.9434 13.89929566832575"
      },
      "geometry": {
        "type": "Point",
        "coordinates": [
          -11.646811521778165,
          -38.98007729093771
        ]
      }
    },
    {
      "type": "Feature",
      "properties": {
        "norad_id": 36519,
        "name": "COSMOS 2463",
        "group": "musson",
        "lat": 80.60892397638872,
        "lon": 152.5245185265542,
        "alt_km": 1011.400977560791,
        "timestamp": "2025-12-20T16:47:36.556530+00:00",
        "meta_object_name": "COSMOS 2463",
        "meta_object_id": "2010-017A",
        "meta_epoch": "2025-12-20T07:37:33.206016",
        "meta_mean_motion": 13.71649774,
        "meta_eccentricity": 0.0034739,
        "meta_inclination": 82.9605,
        "meta_ra_of_asc_node": 21.1436,
        "meta_arg_of_pericenter": 266.2291,
        "meta_mean_anomaly": 104.9131,
        "meta_ephemeris_type": 0,
        "meta_classification_type": "U",
        "meta_norad_cat_id": 36519,
        "meta_element_set_no": 999,
        "meta_rev_at_epoch": 78341,
        "meta_bstar": 4.6253e-05,
        "meta_mean_motion_dot": 5.7e-07,
        "meta_mean_motion_ddot": 0,
        "tle_line1": "1 36519U 10017A   25354.31774544  .00000057  00000+0  46253-4 0  9992",
        "tle_line2": "2 36519  82.9605  21.1436 0034739 266.2291 104.9131 13.71649774783418"
      },
      "geometry": {
        "type": "Point",
        "coordinates": [
          152.5245185265542,
          80.60892397638872
        ]
      }
    }
  ]
}